<?xml version="1.0" encoding="UTF-8"?>
<kml xmlns="http://www.opengis.net/kml/2.2" xmlns:gx="http://www.google.com/kml/ext/2.2" xmlns:kml="http://www.opengis.net/kml/2.2" xmlns:atom="http://www.w3.org/2005/Atom">
<Document>
	<name>Places</name>
	<gx:CascadingStyle kml:id="__managed_style_0DEE5105BC3F57D61339_highlight">
		<Style>
			<IconStyle>
				<scale>1.2</scale>
				<Icon>
					<href>https://earth.google.com/earth/document/icon?color=1976d2&amp;id=2000&amp;scale=4</href>
				</Icon>
				<hotSpot x="64" y="128" xunits="pixels" yunits="insetPixels"/>
			</IconStyle>
			<LabelStyle>
			</LabelStyle>
			<LineStyle>
				<color>ff2dc0fb</color>
				<width>6</width>
			</LineStyle>
			<PolyStyle>
				<color>40ffffff</color>
			</PolyStyle>
			<BalloonStyle>
				<displayMode>hide</displayMode>
			</BalloonStyle>
		</Style>
	</gx:CascadingStyle>
	<gx:CascadingStyle kml:id="__managed_style_0DEE5105BC3F57D61339_normal">
		<Style>
			<IconStyle>
				<Icon>
					<href>https://earth.google.com/earth/document/icon?color=1976d2&amp;id=2000&amp;scale=4</href>
				</Icon>
				<hotSpot x="64" y="128" xunits="pixels" yunits="insetPixels"/>
			</IconStyle>
			<LabelStyle>
			</LabelStyle>
			<LineStyle>
				<color>ff2dc0fb</color>
				<width>4</width>
			</LineStyle>
			<PolyStyle>
				<color>40ffffff</color>
			</PolyStyle>
			<BalloonStyle>
				<displayMode>hide</displayMode>
			</BalloonStyle>
		</Style>
	</gx:CascadingStyle>
	<StyleMap id="__managed_style_0DEE5105BC3F57D61339">
		<Pair>
			<key>normal</key>
			<styleUrl>#__managed_style_0DEE5105BC3F57D61339_normal</styleUrl>
		</Pair>
		<Pair>
			<key>highlight</key>
			<styleUrl>#__managed_style_0DEE5105BC3F57D61339_highlight</styleUrl>
		</Pair>
	</StyleMap>
	<Style id="icon-1499-097138-nodesc-highlight">
		<IconStyle>
			<color>ff387109</color>
			<Icon>
				<href>blob://https//earth.google.com/img/marker.png</href>
			</Icon>
			<hotSpot x="8" y="2" xunits="pixels" yunits="insetPixels"/>
		</IconStyle>
		<LabelStyle>
		</LabelStyle>
		<BalloonStyle>
			<text><![CDATA[<h3>$[name]</h3>]]></text>
		</BalloonStyle>
	</Style>
	<Style id="icon-1499-097138-nodesc-normal">
		<IconStyle>
			<color>ff387109</color>
			<Icon>
				<href>blob://https//earth.google.com/img/marker.png</href>
			</Icon>
			<hotSpot x="8" y="2" xunits="pixels" yunits="insetPixels"/>
		</IconStyle>
		<LabelStyle>
			<scale>0</scale>
		</LabelStyle>
		<BalloonStyle>
			<text><![CDATA[<h3>$[name]</h3>]]></text>
		</BalloonStyle>
	</Style>
	<StyleMap id="icon-1499-097138-nodesc">
		<Pair>
			<key>normal</key>
			<styleUrl>#icon-1499-097138-nodesc-normal</styleUrl>
		</Pair>
		<Pair>
			<key>highlight</key>
			<styleUrl>#icon-1499-097138-nodesc-highlight</styleUrl>
		</Pair>
	</StyleMap>
	<Placemark id="02FA54B9613F57D4958C">
		<name>Langkawi</name>
		<styleUrl>#icon-1499-097138-nodesc</styleUrl>
		<Point>
			<coordinates>99.75823999999999,6.351074000000001,0</coordinates>
		</Point>
	</Placemark>
	<Placemark id="1CCAED40CF3F57D4958C">
		<name>Yosemite National Park</name>
		<styleUrl>#icon-1499-097138-nodesc</styleUrl>
		<Point>
			<coordinates>-119.58511,37.745712,0</coordinates>
		</Point>
	</Placemark>
	<Placemark id="2A119FB8EF3F57D4958C">
		<name>Puerto López</name>
		<styleUrl>#icon-1499-097138-nodesc</styleUrl>
		<Point>
			<coordinates>-80.810356,-1.560754,0</coordinates>
		</Point>
	</Placemark>
	<Placemark id="3872CD431A3F57D4958C">
		<name>Medellín</name>
		<styleUrl>#icon-1499-097138-nodesc</styleUrl>
		<Point>
			<coordinates>-75.56297000000001,6.251037999999999,0</coordinates>
		</Point>
	</Placemark>
	<Placemark id="4A45CD596B3F57D4958C">
		<name>Máncora</name>
		<styleUrl>#icon-1499-097138-nodesc</styleUrl>
		<Point>
			<coordinates>-80.9686,-4.163196,0</coordinates>
		</Point>
	</Placemark>
	<Placemark id="5AA205DA5E3F57D4958C">
		<name>Erawan National Park</name>
		<styleUrl>#icon-1499-097138-nodesc</styleUrl>
		<Point>
			<coordinates>99.14429999999999,14.376134,0</coordinates>
		</Point>
	</Placemark>
	<Placemark id="61691970683F57D4958C">
		<name>Taganga</name>
		<styleUrl>#icon-1499-097138-nodesc</styleUrl>
		<Point>
			<coordinates>-74.19016000000001,11.269027,0</coordinates>
		</Point>
	</Placemark>
	<Placemark id="72E1439BDD3F57D4958C">
		<name>Bucaramanga</name>
		<styleUrl>#icon-1499-097138-nodesc</styleUrl>
		<Point>
			<coordinates>-73.128265,7.123007999999999,0</coordinates>
		</Point>
	</Placemark>
	<Placemark id="87EBD060583F57D4958C">
		<name>Puno</name>
		<styleUrl>#icon-1499-097138-nodesc</styleUrl>
		<Point>
			<coordinates>-70.02042400000001,-15.842083,0</coordinates>
		</Point>
	</Placemark>
	<Placemark id="9F48679C283F57D4958C">
		<name>Trujillo</name>
		<styleUrl>#icon-1499-097138-nodesc</styleUrl>
		<Point>
			<coordinates>-79.0288,-8.112000999999999,0</coordinates>
		</Point>
	</Placemark>
	<Placemark id="A3E9BACE833F57D4958C">
		<name>Cartagena</name>
		<styleUrl>#icon-1499-097138-nodesc</styleUrl>
		<Point>
			<coordinates>-75.53431,10.415437,0</coordinates>
		</Point>
	</Placemark>
	<Placemark id="BEA0F3C39B3F57D4958C">
		<name>Paris</name>
		<styleUrl>#icon-1499-097138-nodesc</styleUrl>
		<Point>
			<coordinates>2.349401,48.85703700000001,0</coordinates>
		</Point>
	</Placemark>
	<Placemark id="C04AB5662F3F57D4958C">
		<name>London</name>
		<styleUrl>#icon-1499-097138-nodesc</styleUrl>
		<Point>
			<coordinates>-0.096654,51.51924,0</coordinates>
		</Point>
	</Placemark>
	<Placemark id="D71F8A1AEE3F57D4958C">
		<name>Killarney</name>
		<styleUrl>#icon-1499-097138-nodesc</styleUrl>
		<Point>
			<coordinates>-9.51107,52.058296,0</coordinates>
		</Point>
	</Placemark>
	<Placemark id="E153F59BC63F57D4958C">
		<name>Antwerp</name>
		<styleUrl>#icon-1499-097138-nodesc</styleUrl>
		<Point>
			<coordinates>4.409642,51.21903199999999,0</coordinates>
		</Point>
	</Placemark>
	<Placemark id="FB7A81CB013F57D4958C">
		<name>Surat Thani</name>
		<styleUrl>#icon-1499-097138-nodesc</styleUrl>
		<Point>
			<coordinates>99.33311,9.14011,0</coordinates>
		</Point>
	</Placemark>
	<Placemark id="10D08BFAC6B3F57D4958C">
		<name>Mechelen</name>
		<styleUrl>#icon-1499-097138-nodesc</styleUrl>
		<Point>
			<coordinates>4.478245,51.02455,0</coordinates>
		</Point>
	</Placemark>
	<Placemark id="1167ADF010E3F57D4958C">
		<name>Ipiales</name>
		<styleUrl>#icon-1499-097138-nodesc</styleUrl>
		<Point>
			<coordinates>-77.64064,0.82173,0</coordinates>
		</Point>
	</Placemark>
	<Placemark id="121E97378343F57D4958C">
		<name>Pergine Valsugana</name>
		<styleUrl>#icon-1499-097138-nodesc</styleUrl>
		<Point>
			<coordinates>11.239557,46.067978,0</coordinates>
		</Point>
	</Placemark>
	<Placemark id="13F4D1CE86A3F57D4958C">
		<name>San Francisco</name>
		<styleUrl>#icon-1499-097138-nodesc</styleUrl>
		<Point>
			<coordinates>-122.41579,37.778934,0</coordinates>
		</Point>
	</Placemark>
	<Placemark id="14B4A4FEB9A3F57D4958C">
		<name>Reine</name>
		<styleUrl>#icon-1499-097138-nodesc</styleUrl>
		<Point>
			<coordinates>13.091608,67.93469,0</coordinates>
		</Point>
	</Placemark>
	<Placemark id="15930BF40D63F57D4958C">
		<name>Khuraburi</name>
		<styleUrl>#icon-1499-097138-nodesc</styleUrl>
		<Point>
			<coordinates>98.41531999999999,9.193966,0</coordinates>
		</Point>
	</Placemark>
	<Placemark id="16C5C21CFC03F57D4958C">
		<name>Las Vegas</name>
		<styleUrl>#icon-1499-097138-nodesc</styleUrl>
		<Point>
			<coordinates>-115.17208,36.114304,0</coordinates>
		</Point>
	</Placemark>
	<Placemark id="175BDE5ABB43F57D4958C">
		<name>Gangtok</name>
		<styleUrl>#icon-1499-097138-nodesc</styleUrl>
		<Point>
			<coordinates>88.61667,27.33333,0</coordinates>
		</Point>
	</Placemark>
	<Placemark id="185B43342393F57D4958C">
		<name>La Paz</name>
		<styleUrl>#icon-1499-097138-nodesc</styleUrl>
		<Point>
			<coordinates>-68.14605,-16.49827,0</coordinates>
		</Point>
	</Placemark>
	<Placemark id="199A2FAFB413F57D4958C">
		<name>Düsseldorf</name>
		<styleUrl>#icon-1499-097138-nodesc</styleUrl>
		<Point>
			<coordinates>6.778336999999999,51.223465,0</coordinates>
		</Point>
	</Placemark>
	<Placemark id="1A8956701FB3F57D4958C">
		<name>Köln</name>
		<styleUrl>#icon-1499-097138-nodesc</styleUrl>
		<Point>
			<coordinates>6.959839,50.939663,0</coordinates>
		</Point>
	</Placemark>
	<Placemark id="1B4FF9C134B3F57D4958C">
		<name>Barcelona</name>
		<styleUrl>#icon-1499-097138-nodesc</styleUrl>
		<Point>
			<coordinates>2.169576,41.385597,0</coordinates>
		</Point>
	</Placemark>
	<Placemark id="1C0AB33731B3F57D4958C">
		<name>Pelling</name>
		<styleUrl>#icon-1499-097138-nodesc</styleUrl>
		<Point>
			<coordinates>88.23384,27.301764,0</coordinates>
		</Point>
	</Placemark>
	<Placemark id="1D748E6A7853F57D4958C">
		<name>Yogyakarta</name>
		<styleUrl>#icon-1499-097138-nodesc</styleUrl>
		<Point>
			<coordinates>110.36977,-7.800425,0</coordinates>
		</Point>
	</Placemark>
	<Placemark id="1EBE14CA7B73F57D4958C">
		<name>Seoul</name>
		<styleUrl>#icon-1499-097138-nodesc</styleUrl>
		<Point>
			<coordinates>127.00857,37.477543,0</coordinates>
		</Point>
	</Placemark>
	<Placemark id="1F53F4F21313F57D4958C">
		<name>Joshua Tree National Park</name>
		<styleUrl>#icon-1499-097138-nodesc</styleUrl>
		<Point>
			<coordinates>-115.829544,33.884666,0</coordinates>
		</Point>
	</Placemark>
	<Placemark id="203CBC249A93F57D4958C">
		<name>Bogota</name>
		<styleUrl>#icon-1499-097138-nodesc</styleUrl>
		<Point>
			<coordinates>-74.08038000000001,4.623524,0</coordinates>
		</Point>
	</Placemark>
	<Placemark id="212A6EC4EA23F57D4958C">
		<name>Cork</name>
		<styleUrl>#icon-1499-097138-nodesc</styleUrl>
		<Point>
			<coordinates>-8.474197,51.89114800000001,0</coordinates>
		</Point>
	</Placemark>
	<Placemark id="2281E4827343F57D4958C">
		<name>Phnom Penh</name>
		<styleUrl>#icon-1499-097138-nodesc</styleUrl>
		<Point>
			<coordinates>104.92013,11.563291,0</coordinates>
		</Point>
	</Placemark>
	<Placemark id="230933D9B733F57D4958C">
		<name>Chiclayo</name>
		<styleUrl>#icon-1499-097138-nodesc</styleUrl>
		<Point>
			<coordinates>-79.84112,-6.775684,0</coordinates>
		</Point>
	</Placemark>
	<Placemark id="24B8E5166FD3F57D4958C">
		<name>Dublin</name>
		<styleUrl>#icon-1499-097138-nodesc</styleUrl>
		<Point>
			<coordinates>-6.25341,53.345966,0</coordinates>
		</Point>
	</Placemark>
	<Placemark id="255665380923F57D4958C">
		<name>Berkeley</name>
		<styleUrl>#icon-1499-097138-nodesc</styleUrl>
		<Point>
			<coordinates>-122.29168,37.86867,0</coordinates>
		</Point>
	</Placemark>
	<Placemark id="265EC8246A93F57D4958C">
		<name>Budapest</name>
		<styleUrl>#icon-1499-097138-nodesc</styleUrl>
		<Point>
			<coordinates>19.0507,47.49346,0</coordinates>
		</Point>
	</Placemark>
	<Placemark id="273DBF8DECC3F57D4958C">
		<name>San Pedro de Atacama</name>
		<styleUrl>#icon-1499-097138-nodesc</styleUrl>
		<Point>
			<coordinates>-68.19538,-22.910463,0</coordinates>
		</Point>
	</Placemark>
	<Placemark id="286CBA604F83F57D4958C">
		<name>Mai Châu</name>
		<styleUrl>#icon-1499-097138-nodesc</styleUrl>
		<Point>
			<coordinates>105.07837,20.654125,0</coordinates>
		</Point>
	</Placemark>
	<Placemark id="2989125035F3F57D4958C">
		<name>Foz do Iguaçu</name>
		<styleUrl>#icon-1499-097138-nodesc</styleUrl>
		<Point>
			<coordinates>-54.56604,-25.51355999999999,0</coordinates>
		</Point>
	</Placemark>
	<Placemark id="2AD4D518A123F57D4958C">
		<name>Tokyo</name>
		<styleUrl>#icon-1499-097138-nodesc</styleUrl>
		<Point>
			<coordinates>139.759,35.680565,0</coordinates>
		</Point>
	</Placemark>
	<Placemark id="2BD85E85DE53F57D4958C">
		<name>Huanchaco</name>
		<styleUrl>#icon-1499-097138-nodesc</styleUrl>
		<Point>
			<coordinates>-79.12228399999999,-8.080804000000001,0</coordinates>
		</Point>
	</Placemark>
	<Placemark id="2CFB1E64DA13F57D4958C">
		<name>Flåm</name>
		<styleUrl>#icon-1499-097138-nodesc</styleUrl>
		<Point>
			<coordinates>7.11667,60.8333,0</coordinates>
		</Point>
	</Placemark>
	<Placemark id="2D7CDB017CA3F57D4958C">
		<name>Paracas</name>
		<styleUrl>#icon-1499-097138-nodesc</styleUrl>
		<Point>
			<coordinates>-76.24803,-13.833746,0</coordinates>
		</Point>
	</Placemark>
	<Placemark id="2EA751CF70D3F57D4958C">
		<name>Piura</name>
		<styleUrl>#icon-1499-097138-nodesc</styleUrl>
		<Point>
			<coordinates>-80.63115000000001,-5.199983,0</coordinates>
		</Point>
	</Placemark>
	<Placemark id="2F596509B923F57D4958C">
		<name>Hastings</name>
		<styleUrl>#icon-1499-097138-nodesc</styleUrl>
		<Point>
			<coordinates>0.575638,50.855213,0</coordinates>
		</Point>
	</Placemark>
	<Placemark id="30BDABEBFFF3F57D4958C">
		<name>Jeonju</name>
		<styleUrl>#icon-1499-097138-nodesc</styleUrl>
		<Point>
			<coordinates>127.14984,35.81467,0</coordinates>
		</Point>
	</Placemark>
	<Placemark id="310E037CFAD3F57D4958C">
		<name>Copenhagen</name>
		<styleUrl>#icon-1499-097138-nodesc</styleUrl>
		<Point>
			<coordinates>12.580593,55.67502,0</coordinates>
		</Point>
	</Placemark>
	<Placemark id="32C75C6A25A3F57D4958C">
		<name>Singapore</name>
		<styleUrl>#icon-1499-097138-nodesc</styleUrl>
		<Point>
			<coordinates>103.85111,1.285801,0</coordinates>
		</Point>
	</Placemark>
	<Placemark id="33AE3DB6FC73F57D4958C">
		<name>Ayutthaya</name>
		<styleUrl>#icon-1499-097138-nodesc</styleUrl>
		<Point>
			<coordinates>100.5778,14.355281,0</coordinates>
		</Point>
	</Placemark>
	<Placemark id="3492E72B9053F57D4958C">
		<name>Cuenca</name>
		<styleUrl>#icon-1499-097138-nodesc</styleUrl>
		<Point>
			<coordinates>-78.98475999999999,-2.881429,0</coordinates>
		</Point>
	</Placemark>
	<Placemark id="35518DADCED3F57D4958C">
		<name>Quito</name>
		<styleUrl>#icon-1499-097138-nodesc</styleUrl>
		<Point>
			<coordinates>-78.5416,-0.257213,0</coordinates>
		</Point>
	</Placemark>
	<Placemark id="36C36AA67AD3F57D4958C">
		<name>Uyuni</name>
		<styleUrl>#icon-1499-097138-nodesc</styleUrl>
		<Point>
			<coordinates>-66.821465,-20.458752,0</coordinates>
		</Point>
	</Placemark>
	<Placemark id="37916E451033F57D4958C">
		<name>Manta</name>
		<styleUrl>#icon-1499-097138-nodesc</styleUrl>
		<Point>
			<coordinates>-80.69755600000001,-0.9807470000000001,0</coordinates>
		</Point>
	</Placemark>
	<Placemark id="38B77992FEB3F57D4958C">
		<name>Turku</name>
		<styleUrl>#icon-1499-097138-nodesc</styleUrl>
		<Point>
			<coordinates>22.262772,60.45225,0</coordinates>
		</Point>
	</Placemark>
	<Placemark id="39809733F973F57D4958C">
		<name>Trondheim</name>
		<styleUrl>#icon-1499-097138-nodesc</styleUrl>
		<Point>
			<coordinates>10.395587,63.42974,0</coordinates>
		</Point>
	</Placemark>
	<Placemark id="3A91E9478F03F57D4958C">
		<name>Å i Lofoten</name>
		<styleUrl>#icon-1499-097138-nodesc</styleUrl>
		<Point>
			<coordinates>12.986285,67.87985,0</coordinates>
		</Point>
	</Placemark>
	<Placemark id="3B7A0E7F5EF3F57D4958C">
		<name>Doolin</name>
		<styleUrl>#icon-1499-097138-nodesc</styleUrl>
		<Point>
			<coordinates>-9.384081,53.012756,0</coordinates>
		</Point>
	</Placemark>
	<Placemark id="3CA764C9B5F3F57D4958C">
		<name>Kuala Lumpur</name>
		<styleUrl>#icon-1499-097138-nodesc</styleUrl>
		<Point>
			<coordinates>101.69717,3.156802,0</coordinates>
		</Point>
	</Placemark>
	<Placemark id="3D60C96CB323F57D4958C">
		<name>Strasbourg</name>
		<styleUrl>#icon-1499-097138-nodesc</styleUrl>
		<Point>
			<coordinates>7.7636,48.583153,0</coordinates>
		</Point>
	</Placemark>
	<Placemark id="3E805F840F83F57D4958C">
		<name>Santo Domingo</name>
		<styleUrl>#icon-1499-097138-nodesc</styleUrl>
		<Point>
			<coordinates>-79.16897,-0.256805,0</coordinates>
		</Point>
	</Placemark>
	<Placemark id="3F49192DF103F57D4958C">
		<name>Probolinggo</name>
		<styleUrl>#icon-1499-097138-nodesc</styleUrl>
		<Point>
			<coordinates>113.21537,-7.753311,0</coordinates>
		</Point>
	</Placemark>
	<Placemark id="4009B89FF813F57D4958C">
		<name>Busan</name>
		<styleUrl>#icon-1499-097138-nodesc</styleUrl>
		<Point>
			<coordinates>129.03625,35.115417,0</coordinates>
		</Point>
	</Placemark>
	<Placemark id="4174428614F3F57D4958C">
		<name>Chiang Rai</name>
		<styleUrl>#icon-1499-097138-nodesc</styleUrl>
		<Point>
			<coordinates>99.834435,19.90472,0</coordinates>
		</Point>
	</Placemark>
	<Placemark id="42865E5EE0E3F57D4958C">
		<name>Palm Springs</name>
		<styleUrl>#icon-1499-097138-nodesc</styleUrl>
		<Point>
			<coordinates>-116.54652,33.832108,0</coordinates>
		</Point>
	</Placemark>
	<Placemark id="43EFC2A4AA63F57D4958C">
		<name>Aarhus</name>
		<styleUrl>#icon-1499-097138-nodesc</styleUrl>
		<Point>
			<coordinates>10.203143,56.155666,0</coordinates>
		</Point>
	</Placemark>
	<Placemark id="44629DF5DD53F57D4958C">
		<name>Venice</name>
		<styleUrl>#icon-1499-097138-nodesc</styleUrl>
		<Point>
			<coordinates>12.323647,45.439087,0</coordinates>
		</Point>
	</Placemark>
	<Placemark id="45A182F523C3F57D4958C">
		<name>Abu Dhabi</name>
		<styleUrl>#icon-1499-097138-nodesc</styleUrl>
		<Point>
			<coordinates>54.36598200000001,24.469482,0</coordinates>
		</Point>
	</Placemark>
	<Placemark id="469E9605E2C3F57D4958C">
		<name>Prague</name>
		<styleUrl>#icon-1499-097138-nodesc</styleUrl>
		<Point>
			<coordinates>14.427817,50.076847,0</coordinates>
		</Point>
	</Placemark>
	<Placemark id="47A2CFA6EEB3F57D4958C">
		<name>Luleå</name>
		<styleUrl>#icon-1499-097138-nodesc</styleUrl>
		<Point>
			<coordinates>22.14918,65.58427399999999,0</coordinates>
		</Point>
	</Placemark>
	<Placemark id="48F665DA00B3F57D4958C">
		<name>Helsinki</name>
		<styleUrl>#icon-1499-097138-nodesc</styleUrl>
		<Point>
			<coordinates>24.940203,60.16798,0</coordinates>
		</Point>
	</Placemark>
	<Placemark id="49C576B13893F57D4958C">
		<name>Incheon</name>
		<styleUrl>#icon-1499-097138-nodesc</styleUrl>
		<Point>
			<coordinates>126.63551,37.478355,0</coordinates>
		</Point>
	</Placemark>
	<Placemark id="4A07B537FF23F57D4958C">
		<name>Puerto Iguazú</name>
		<styleUrl>#icon-1499-097138-nodesc</styleUrl>
		<Point>
			<coordinates>-54.570644,-25.59852800000001,0</coordinates>
		</Point>
	</Placemark>
	<Placemark id="4B6BA1192483F57D4958C">
		<name>Hat Yai</name>
		<styleUrl>#icon-1499-097138-nodesc</styleUrl>
		<Point>
			<coordinates>100.47311,7.007868999999999,0</coordinates>
		</Point>
	</Placemark>
	<Placemark id="4CC35679F193F57D4958C">
		<name>Gyeongju</name>
		<styleUrl>#icon-1499-097138-nodesc</styleUrl>
		<Point>
			<coordinates>129.21255,35.84246,0</coordinates>
		</Point>
	</Placemark>
	<Placemark id="4D63ACD2D8D3F57D4958C">
		<name>Plitvice Lakes National Park</name>
		<styleUrl>#icon-1499-097138-nodesc</styleUrl>
		<Point>
			<coordinates>15.582012,44.8654,0</coordinates>
		</Point>
	</Placemark>
	<Placemark id="4EB110449FA3F57D4958C">
		<name>Bodø</name>
		<styleUrl>#icon-1499-097138-nodesc</styleUrl>
		<Point>
			<coordinates>14.399212,67.28653,0</coordinates>
		</Point>
	</Placemark>
	<Placemark id="4FD7C835E983F57D4958C">
		<name>Arica</name>
		<styleUrl>#icon-1499-097138-nodesc</styleUrl>
		<Point>
			<coordinates>-70.30468999999999,-18.47291,0</coordinates>
		</Point>
	</Placemark>
	<Placemark id="506778A72D43F57D4958C">
		<name>Split</name>
		<styleUrl>#icon-1499-097138-nodesc</styleUrl>
		<Point>
			<coordinates>16.442886,43.508633,0</coordinates>
		</Point>
	</Placemark>
	<Placemark id="51E6DCD6C793F57D4958C">
		<name>Narvik</name>
		<styleUrl>#icon-1499-097138-nodesc</styleUrl>
		<Point>
			<coordinates>17.42745,68.43826,0</coordinates>
		</Point>
	</Placemark>
	<Placemark id="52A269473413F57D4958C">
		<name>Dubrovnik</name>
		<styleUrl>#icon-1499-097138-nodesc</styleUrl>
		<Point>
			<coordinates>18.079966,42.653934,0</coordinates>
		</Point>
	</Placemark>
	<Placemark id="53203F3E5E93F57D4958C">
		<name>Bruges</name>
		<styleUrl>#icon-1499-097138-nodesc</styleUrl>
		<Point>
			<coordinates>3.22457,51.208893,0</coordinates>
		</Point>
	</Placemark>
	<Placemark id="542C68312643F57D4958C">
		<name>Siem Reap</name>
		<styleUrl>#icon-1499-097138-nodesc</styleUrl>
		<Point>
			<coordinates>103.86083,13.363545,0</coordinates>
		</Point>
	</Placemark>
	<Placemark id="5594E77EBA43F57D4958C">
		<name>Marburg</name>
		<styleUrl>#icon-1499-097138-nodesc</styleUrl>
		<Point>
			<coordinates>8.756567,50.799725,0</coordinates>
		</Point>
	</Placemark>
	<Placemark id="56241E3A7DC3F57D4958C">
		<name>Sharm El Sheikh</name>
		<styleUrl>#icon-1499-097138-nodesc</styleUrl>
		<Point>
			<coordinates>34.308937,27.873486,0</coordinates>
		</Point>
	</Placemark>
	<Placemark id="57ADCA92A293F57D4958C">
		<name>Manchester</name>
		<styleUrl>#icon-1499-097138-nodesc</styleUrl>
		<Point>
			<coordinates>-2.247661,53.476948,0</coordinates>
		</Point>
	</Placemark>
	<Placemark id="586D44E7E933F57D4958C">
		<name>Athens</name>
		<styleUrl>#icon-1499-097138-nodesc</styleUrl>
		<Point>
			<coordinates>23.721302,37.97698,0</coordinates>
		</Point>
	</Placemark>
	<Placemark id="59635B9406B3F57D4958C">
		<name>Armenia</name>
		<styleUrl>#icon-1499-097138-nodesc</styleUrl>
		<Point>
			<coordinates>-75.70771999999999,4.529399,0</coordinates>
		</Point>
	</Placemark>
	<Placemark id="5A7568E53D43F57D4958C">
		<name>Rovaniemi</name>
		<styleUrl>#icon-1499-097138-nodesc</styleUrl>
		<Point>
			<coordinates>25.726658,66.500015,0</coordinates>
		</Point>
	</Placemark>
	<Placemark id="5BCB4BB1D453F57D4958C">
		<name>Giza</name>
		<styleUrl>#icon-1499-097138-nodesc</styleUrl>
		<Point>
			<coordinates>31.21381,30.01076,0</coordinates>
		</Point>
	</Placemark>
	<Placemark id="5C27B1C948D3F57D4958C">
		<name>Popayán</name>
		<styleUrl>#icon-1499-097138-nodesc</styleUrl>
		<Point>
			<coordinates>-76.61038000000001,2.443569,0</coordinates>
		</Point>
	</Placemark>
	<Placemark id="5DFA11CCD733F57D4958C">
		<name>Cairo</name>
		<styleUrl>#icon-1499-097138-nodesc</styleUrl>
		<Point>
			<coordinates>31.24278,30.04578,0</coordinates>
		</Point>
	</Placemark>
	<Placemark id="5E2F0C6611A3F57D4958C">
		<name>Larochette</name>
		<styleUrl>#icon-1499-097138-nodesc</styleUrl>
		<Point>
			<coordinates>6.2197,49.7762,0</coordinates>
		</Point>
	</Placemark>
	<Placemark id="5FF8219FDE53F57D4958C">
		<name>Zadar</name>
		<styleUrl>#icon-1499-097138-nodesc</styleUrl>
		<Point>
			<coordinates>15.228143,44.112686,0</coordinates>
		</Point>
	</Placemark>
	<Placemark id="60424D7844C3F57D4958C">
		<name>Ko Tao</name>
		<styleUrl>#icon-1499-097138-nodesc</styleUrl>
		<Point>
			<coordinates>99.83497,10.08735,0</coordinates>
		</Point>
	</Placemark>
	<Placemark id="61EE0E4DA5B3F57D4958C">
		<name>Santa Cruz</name>
		<styleUrl>#icon-1499-097138-nodesc</styleUrl>
		<Point>
			<coordinates>-63.17565,-17.798384,0</coordinates>
		</Point>
	</Placemark>
	<Placemark id="62426815EB73F57D4958C">
		<name>Ayacucho</name>
		<styleUrl>#icon-1499-097138-nodesc</styleUrl>
		<Point>
			<coordinates>-74.22641,-13.160582,0</coordinates>
		</Point>
	</Placemark>
	<Placemark id="6391045F79E3F57D4958C">
		<name>Copacabana</name>
		<styleUrl>#icon-1499-097138-nodesc</styleUrl>
		<Point>
			<coordinates>-69.088905,-16.16455,0</coordinates>
		</Point>
	</Placemark>
	<Placemark id="646396978EC3F57D4958C">
		<name>Nazca</name>
		<styleUrl>#icon-1499-097138-nodesc</styleUrl>
		<Point>
			<coordinates>-74.93997,-14.82549,0</coordinates>
		</Point>
	</Placemark>
	<Placemark id="656DCF85B923F57D4958C">
		<name>Stavanger</name>
		<styleUrl>#icon-1499-097138-nodesc</styleUrl>
		<Point>
			<coordinates>5.727673,58.96624,0</coordinates>
		</Point>
	</Placemark>
	<Placemark id="66E028914153F57D4958C">
		<name>Chiang Mai</name>
		<styleUrl>#icon-1499-097138-nodesc</styleUrl>
		<Point>
			<coordinates>99.01728999999999,18.800703,0</coordinates>
		</Point>
	</Placemark>
	<Placemark id="67CE0A397FC3F57D4958C">
		<name>Vilcabamba</name>
		<styleUrl>#icon-1499-097138-nodesc</styleUrl>
		<Point>
			<coordinates>-79.25,-4.25,0</coordinates>
		</Point>
	</Placemark>
	<Placemark id="681E0DD22003F57D4958C">
		<name>Bangkok</name>
		<styleUrl>#icon-1499-097138-nodesc</styleUrl>
		<Point>
			<coordinates>100.53466,13.745595,0</coordinates>
		</Point>
	</Placemark>
	<Placemark id="69D56EE66463F57D4958C">
		<name>Oslo</name>
		<styleUrl>#icon-1499-097138-nodesc</styleUrl>
		<Point>
			<coordinates>10.750844,59.91173,0</coordinates>
		</Point>
	</Placemark>
	<Placemark id="6A4EA1AB6A53F57D4958C">
		<name>Åndalsnes</name>
		<styleUrl>#icon-1499-097138-nodesc</styleUrl>
		<Point>
			<coordinates>7.685832999999999,62.55790999999999,0</coordinates>
		</Point>
	</Placemark>
	<Placemark id="6B4723B5EA53F57D4958C">
		<name>São Paulo</name>
		<styleUrl>#icon-1499-097138-nodesc</styleUrl>
		<Point>
			<coordinates>-46.63753500000001,-23.550455,0</coordinates>
		</Point>
	</Placemark>
	<Placemark id="6C9AE67E51D3F57D4958C">
		<name>Tromsø</name>
		<styleUrl>#icon-1499-097138-nodesc</styleUrl>
		<Point>
			<coordinates>18.956936,69.65052,0</coordinates>
		</Point>
	</Placemark>
	<Placemark id="6D0D8A69D133F57D4958C">
		<name>Ko Samui</name>
		<styleUrl>#icon-1499-097138-nodesc</styleUrl>
		<Point>
			<coordinates>99.99258399999999,9.488061999999999,0</coordinates>
		</Point>
	</Placemark>
	<Placemark id="6EFF38CCF813F57D4958C">
		<name>Pulau Pangkor</name>
		<styleUrl>#icon-1499-097138-nodesc</styleUrl>
		<Point>
			<coordinates>100.55774,4.227491,0</coordinates>
		</Point>
	</Placemark>
	<Placemark id="6F7FCFDCE8E3F57D4958C">
		<name>Abisko</name>
		<styleUrl>#icon-1499-097138-nodesc</styleUrl>
		<Point>
			<coordinates>18.832457,68.350945,0</coordinates>
		</Point>
	</Placemark>
	<Placemark id="70BB84012DE3F57D4958C">
		<name>Prachin Buri</name>
		<styleUrl>#icon-1499-097138-nodesc</styleUrl>
		<Point>
			<coordinates>101.578454,13.898127,0</coordinates>
		</Point>
	</Placemark>
	<Placemark id="716A2D0FE033F57D4958C">
		<name>Savonlinna</name>
		<styleUrl>#icon-1499-097138-nodesc</styleUrl>
		<Point>
			<coordinates>28.87812,61.870316,0</coordinates>
		</Point>
	</Placemark>
	<Placemark id="72039FFD81A3F57D4958C">
		<name>Frankfurt</name>
		<styleUrl>#icon-1499-097138-nodesc</styleUrl>
		<Point>
			<coordinates>8.675079,50.107586,0</coordinates>
		</Point>
	</Placemark>
	<Placemark id="730BB5A75253F57D4958C">
		<name>Lima</name>
		<styleUrl>#icon-1499-097138-nodesc</styleUrl>
		<Point>
			<coordinates>-77.03925,-12.072676,0</coordinates>
		</Point>
	</Placemark>
	<Placemark id="7427EAE6E803F57D4958C">
		<name>Campo Grande</name>
		<styleUrl>#icon-1499-097138-nodesc</styleUrl>
		<Point>
			<coordinates>-54.618084,-20.444563,0</coordinates>
		</Point>
	</Placemark>
	<Placemark id="7545CEA6B403F57D4958C">
		<name>Cusco</name>
		<styleUrl>#icon-1499-097138-nodesc</styleUrl>
		<Point>
			<coordinates>-71.96856,-13.521886,0</coordinates>
		</Point>
	</Placemark>
	<Placemark id="7652F31B82A3F57D4958C">
		<name>Ko Lipe</name>
		<styleUrl>#icon-1499-097138-nodesc</styleUrl>
		<Point>
			<coordinates>99.30488599999998,6.488444,0</coordinates>
		</Point>
	</Placemark>
	<Placemark id="77BE538FC143F57D4958C">
		<name>Arequipa</name>
		<styleUrl>#icon-1499-097138-nodesc</styleUrl>
		<Point>
			<coordinates>-71.53407,-16.3982,0</coordinates>
		</Point>
	</Placemark>
	<Placemark id="782B8D31B703F57D4958C">
		<name>Sukhothai</name>
		<styleUrl>#icon-1499-097138-nodesc</styleUrl>
		<Point>
			<coordinates>99.81686000000001,17.008247,0</coordinates>
		</Point>
	</Placemark>
	<Placemark id="7998324A39B3F57D4958C">
		<name>Ålesund</name>
		<styleUrl>#icon-1499-097138-nodesc</styleUrl>
		<Point>
			<coordinates>6.167996,62.47081799999999,0</coordinates>
		</Point>
	</Placemark>
	<Placemark id="7AAAE57D1C73F57D4958C">
		<name>Ubud</name>
		<styleUrl>#icon-1499-097138-nodesc</styleUrl>
		<Point>
			<coordinates>115.25495,-8.504766999999999,0</coordinates>
		</Point>
	</Placemark>
	<Placemark id="7B555DAF32C3F57D4958C">
		<name>Machu Picchu</name>
		<styleUrl>#icon-1499-097138-nodesc</styleUrl>
		<Point>
			<coordinates>-72.53369000000001,-13.181424,0</coordinates>
		</Point>
	</Placemark>
	<Placemark id="7C6EFCA09193F57D4958C">
		<name>Bergen</name>
		<styleUrl>#icon-1499-097138-nodesc</styleUrl>
		<Point>
			<coordinates>5.331452,60.38918,0</coordinates>
		</Point>
	</Placemark>
	<Placemark id="7D3402D74053F57D4958C">
		<name>Shannon</name>
		<styleUrl>#icon-1499-097138-nodesc</styleUrl>
		<Point>
			<coordinates>-8.882070000000001,52.7107,0</coordinates>
		</Point>
	</Placemark>
	<Placemark id="7EC459EEC503F57D4958C">
		<name>Melaka</name>
		<styleUrl>#icon-1499-097138-nodesc</styleUrl>
		<Point>
			<coordinates>102.25327,2.206847,0</coordinates>
		</Point>
	</Placemark>
	<Placemark id="7F3BE4647153F57D4958C">
		<name>Death Valley National Park</name>
		<styleUrl>#icon-1499-097138-nodesc</styleUrl>
		<Point>
			<coordinates>-117.02465,36.560394,0</coordinates>
		</Point>
	</Placemark>
	<Placemark id="806D298BB613F57D4958C">
		<name>Battle</name>
		<styleUrl>#icon-1499-097138-nodesc</styleUrl>
		<Point>
			<coordinates>0.5419389999999999,50.9209,0</coordinates>
		</Point>
	</Placemark>
	<Placemark id="819FC5A125A3F57D4958C">
		<name>Potosí</name>
		<styleUrl>#icon-1499-097138-nodesc</styleUrl>
		<Point>
			<coordinates>-65.75271600000001,-19.58582,0</coordinates>
		</Point>
	</Placemark>
	<Placemark id="822BEF119C13F57D4958C">
		<name>Baños</name>
		<styleUrl>#icon-1499-097138-nodesc</styleUrl>
		<Point>
			<coordinates>-78.41667,-1.4,0</coordinates>
		</Point>
	</Placemark>
	<Placemark id="83693D77B4A3F57D4958C">
		<name>Sucre</name>
		<styleUrl>#icon-1499-097138-nodesc</styleUrl>
		<Point>
			<coordinates>-65.26260000000001,-19.0339,0</coordinates>
		</Point>
	</Placemark>
	<Placemark id="8489DC960C33F57D4958C">
		<name>Heidelberg</name>
		<styleUrl>#icon-1499-097138-nodesc</styleUrl>
		<Point>
			<coordinates>8.697485,49.40901999999999,0</coordinates>
		</Point>
	</Placemark>
	<Placemark id="85BC7A0E39D3F57D4958C">
		<name>Banyuwangi</name>
		<styleUrl>#icon-1499-097138-nodesc</styleUrl>
		<Point>
			<coordinates>114.37312,-8.202316,0</coordinates>
		</Point>
	</Placemark>
	<Placemark id="8683B5110483F57D4958C">
		<name>Berlin</name>
		<styleUrl>#icon-1499-097138-nodesc</styleUrl>
		<Point>
			<coordinates>13.397209,52.51959,0</coordinates>
		</Point>
	</Placemark>
	<Placemark id="87476FB3AFE3F57D4958C">
		<name>Los Angeles</name>
		<styleUrl>#icon-1499-097138-nodesc</styleUrl>
		<Point>
			<coordinates>-118.23284,34.05106,0</coordinates>
		</Point>
	</Placemark>
	<Placemark id="8857A8B39D83F57D4958C">
		<name>Kuopio</name>
		<styleUrl>#icon-1499-097138-nodesc</styleUrl>
		<Point>
			<coordinates>27.677414,62.89238700000001,0</coordinates>
		</Point>
	</Placemark>
	<Placemark id="8908B3E0B683F57D4958C">
		<name>Milan</name>
		<styleUrl>#icon-1499-097138-nodesc</styleUrl>
		<Point>
			<coordinates>9.189092,45.464787,0</coordinates>
		</Point>
	</Placemark>
	<Placemark id="8A514814C1C3F57D4958C">
		<name>Jakarta</name>
		<styleUrl>#icon-1499-097138-nodesc</styleUrl>
		<Point>
			<coordinates>106.84238,-6.202333,0</coordinates>
		</Point>
	</Placemark>
	<Placemark id="8B5B7BABD8E3F57D4958C">
		<name>Guaruja</name>
		<styleUrl>#icon-1499-097138-nodesc</styleUrl>
		<Point>
			<coordinates>-46.25648,-23.993752,0</coordinates>
		</Point>
	</Placemark>
	<Placemark id="8C0D79377103F57D4958C">
		<name>Vienna</name>
		<styleUrl>#icon-1499-097138-nodesc</styleUrl>
		<Point>
			<coordinates>16.372383,48.208862,0</coordinates>
		</Point>
	</Placemark>
	<Placemark id="8D9449B66373F57D4958C">
		<name>Khao Sok National Park</name>
		<styleUrl>#icon-1499-097138-nodesc</styleUrl>
		<Point>
			<coordinates>98.69889999999999,8.970843,0</coordinates>
		</Point>
	</Placemark>
	<Placemark id="8EF215F3FAD3F57D4958C">
		<name>Moleson</name>
		<styleUrl>#icon-1499-097138-nodesc</styleUrl>
		<Point>
			<coordinates>7.0379,46.56127,0</coordinates>
		</Point>
	</Placemark>
	<Placemark id="8FF4E48B03B3F57D4958C">
		<name>Salento</name>
		<styleUrl>#icon-1499-097138-nodesc</styleUrl>
		<Point>
			<coordinates>-75.56957,4.636355,0</coordinates>
		</Point>
	</Placemark>
	<Placemark id="9087F249DDE3F57D4958C">
		<name>Inisheer</name>
		<styleUrl>#icon-1499-097138-nodesc</styleUrl>
		<Point>
			<coordinates>-9.52755,53.05793,0</coordinates>
		</Point>
	</Placemark>
	<Placemark id="91FDA98606A3F57D4958C">
		<name>Rome</name>
		<styleUrl>#icon-1499-097138-nodesc</styleUrl>
		<Point>
			<coordinates>12.495978,41.893623,0</coordinates>
		</Point>
	</Placemark>
	<Placemark id="92F0A2328193F57D4958C">
		<name>Ko Kut</name>
		<styleUrl>#icon-1499-097138-nodesc</styleUrl>
		<Point>
			<coordinates>102.56728,11.648245,0</coordinates>
		</Point>
	</Placemark>
	<Placemark id="935EE5A60643F57D4958C">
		<name>Stockholm</name>
		<styleUrl>#icon-1499-097138-nodesc</styleUrl>
		<Point>
			<coordinates>18.06151,59.33013500000001,0</coordinates>
		</Point>
	</Placemark>
	<Placemark id="94AC0744DFE3F57D4958C">
		<name>Dresden</name>
		<styleUrl>#icon-1499-097138-nodesc</styleUrl>
		<Point>
			<coordinates>13.73823,51.050453,0</coordinates>
		</Point>
	</Placemark>
	<Placemark id="9542E80D8903F57D4958C">
		<name>Ko Lan</name>
		<styleUrl>#icon-1499-097138-nodesc</styleUrl>
		<Point>
			<coordinates>100.780266,12.918226,0</coordinates>
		</Point>
	</Placemark>
	<Placemark id="960940913CE3F57D4958C">
		<name>Agra</name>
		<styleUrl>#icon-1499-097138-nodesc</styleUrl>
		<Point>
			<coordinates>78.00142,27.193102,0</coordinates>
		</Point>
	</Placemark>
	<Placemark id="97177A2B1CE3F57D4958C">
		<name>Brussels</name>
		<styleUrl>#icon-1499-097138-nodesc</styleUrl>
		<Point>
			<coordinates>4.351959,50.849632,0</coordinates>
		</Point>
	</Placemark>
	<Placemark id="9892284B3EB3F57D4958C">
		<name>Hong Kong</name>
		<styleUrl>#icon-1499-097138-nodesc</styleUrl>
		<Point>
			<coordinates>114.17359,22.309187,0</coordinates>
		</Point>
	</Placemark>
	<Placemark id="993C89EF9633F57D4958C">
		<name>Darjeeling</name>
		<styleUrl>#icon-1499-097138-nodesc</styleUrl>
		<Point>
			<coordinates>88.26759,27.044767,0</coordinates>
		</Point>
	</Placemark>
	<Placemark id="9AA50DCA6173F57D4958C">
		<name>Ko Phayam</name>
		<styleUrl>#icon-1499-097138-nodesc</styleUrl>
		<Point>
			<coordinates>98.40730000000001,9.733432000000001,0</coordinates>
		</Point>
	</Placemark>
	<Placemark id="9B1FD09125F3F57D4958C">
		<name>Bonito</name>
		<styleUrl>#icon-1499-097138-nodesc</styleUrl>
		<Point>
			<coordinates>-56.4819,-21.12111,0</coordinates>
		</Point>
	</Placemark>
	<Placemark id="9CE6788221B3F57D4958C">
		<name>Málaga</name>
		<styleUrl>#icon-1499-097138-nodesc</styleUrl>
		<Point>
			<coordinates>-4.422782,36.718468,0</coordinates>
		</Point>
	</Placemark>
	<Placemark id="9DEC4263C3B3F57D4958C">
		<name>Rio de Janeiro</name>
		<styleUrl>#icon-1499-097138-nodesc</styleUrl>
		<Point>
			<coordinates>-43.18954,-22.91301,0</coordinates>
		</Point>
	</Placemark>
	<Placemark id="9E41BBC84733F57D4958C">
		<name>Hanoi</name>
		<styleUrl>#icon-1499-097138-nodesc</styleUrl>
		<Point>
			<coordinates>105.84962,21.033333,0</coordinates>
		</Point>
	</Placemark>
	<Placemark id="9F6A74C878F3F57D4958C">
		<name>Halong Bay</name>
		<styleUrl>#icon-1499-097138-nodesc</styleUrl>
		<Point>
			<coordinates>107.03013,20.964325,0</coordinates>
		</Point>
	</Placemark>
	<Placemark id="A0B6501D2523F57D4958C">
		<name>Innsbruck</name>
		<styleUrl>#icon-1499-097138-nodesc</styleUrl>
		<Point>
			<coordinates>11.39441,47.264565,0</coordinates>
		</Point>
	</Placemark>
	<Placemark id="A185E5466A23F57D4958C">
		<name>Rurrenabaque</name>
		<styleUrl>#icon-1499-097138-nodesc</styleUrl>
		<Point>
			<coordinates>-67.5292,-14.441995,0</coordinates>
		</Point>
	</Placemark>
	<Placemark id="A2213B77C043F57D4958C">
		<name>Isla del Sol</name>
		<styleUrl>#icon-1499-097138-nodesc</styleUrl>
		<Point>
			<coordinates>-69.16992,-16.019417,0</coordinates>
		</Point>
	</Placemark>
	<Placemark id="A37864AD0BE3F57D4958C">
		<name>New Delhi</name>
		<styleUrl>#icon-1499-097138-nodesc</styleUrl>
		<Point>
			<coordinates>77.22978000000001,28.612072,0</coordinates>
		</Point>
	</Placemark>
	<Placemark id="A4F893E63513F57D4958C">
		<name>Ho Chi Minh City</name>
		<styleUrl>#icon-1499-097138-nodesc</styleUrl>
		<Point>
			<coordinates>106.62975,10.82293,0</coordinates>
		</Point>
	</Placemark>
	<Placemark id="A5AE112168E3F57D4958C">
		<name>Aguas Calientes</name>
		<styleUrl>#icon-1499-097138-nodesc</styleUrl>
		<Point>
			<coordinates>-72.51582000000001,-13.162849,0</coordinates>
		</Point>
	</Placemark>
	<Placemark id="A654136BCEE3F57D4958C">
		<name>Samaipata</name>
		<styleUrl>#icon-1499-097138-nodesc</styleUrl>
		<Point>
			<coordinates>-63.8667,-18.15,0</coordinates>
		</Point>
	</Placemark>
	<Placemark id="A78F39AA0ED3F57D4958C">
		<name>Huaraz</name>
		<styleUrl>#icon-1499-097138-nodesc</styleUrl>
		<Point>
			<coordinates>-77.52875,-9.52703,0</coordinates>
		</Point>
	</Placemark>
	<Placemark id="A8DE2C5A1433F57D4958C">
		<name>Panmunjom</name>
		<styleUrl>#icon-1499-097138-nodesc</styleUrl>
		<Point>
			<coordinates>126.676944,37.956111,0</coordinates>
		</Point>
	</Placemark>
	<Placemark id="A990B121F753F57D4958C">
		<name>Mu Ko Surin National Park</name>
		<styleUrl>#icon-1499-097138-nodesc</styleUrl>
		<Point>
			<coordinates>97.86811900000001,9.434384,0</coordinates>
		</Point>
	</Placemark>
	<Placemark id="AA8D78B44803F57D4958C">
		<name>Trang</name>
		<styleUrl>#icon-1499-097138-nodesc</styleUrl>
		<Point>
			<coordinates>99.62393299999999,7.564483,0</coordinates>
		</Point>
	</Placemark>
	<Placemark id="AB03950411D3F57D4958C">
		<name>Penang</name>
		<styleUrl>#icon-1499-097138-nodesc</styleUrl>
		<Point>
			<coordinates>100.300135,5.465194,0</coordinates>
		</Point>
	</Placemark>
	<Placemark id="ACF7D9FCDC53F57D4958C">
		<name>Lampang</name>
		<styleUrl>#icon-1499-097138-nodesc</styleUrl>
		<Point>
			<coordinates>99.49395000000001,18.290503,0</coordinates>
		</Point>
	</Placemark>
	<Placemark id="AD038DB4E5F3F57D4958C">
		<name>Pai</name>
		<styleUrl>#icon-1499-097138-nodesc</styleUrl>
		<Point>
			<coordinates>98.451517,19.345634,0</coordinates>
		</Point>
	</Placemark>
	<Placemark id="AE7758A42893F57D4958C">
		<name>Taoyuan</name>
		<styleUrl>#icon-1499-097138-nodesc</styleUrl>
		<Point>
			<coordinates>121.30098,24.993628,0</coordinates>
		</Point>
	</Placemark>
	<Placemark id="AF8594DE7583F57D4958C">
		<name>Tongluo Township</name>
		<styleUrl>#icon-1499-097138-nodesc</styleUrl>
		<Point>
			<coordinates>120.792458,24.448194,0</coordinates>
		</Point>
	</Placemark>
	<Placemark id="B0CAD0752B33F57D4958C">
		<name>Taichung</name>
		<styleUrl>#icon-1499-097138-nodesc</styleUrl>
		<Point>
			<coordinates>120.673648,24.147736,0</coordinates>
		</Point>
	</Placemark>
	<Placemark id="B10432C71B43F57D4958C">
		<name>Zhushan</name>
		<styleUrl>#icon-1499-097138-nodesc</styleUrl>
		<Point>
			<coordinates>120.68078,23.756832,0</coordinates>
		</Point>
	</Placemark>
	<Placemark id="B2C00C836DF3F57D4958C">
		<name>Chiayi</name>
		<styleUrl>#icon-1499-097138-nodesc</styleUrl>
		<Point>
			<coordinates>120.449111,23.480075,0</coordinates>
		</Point>
	</Placemark>
	<Placemark id="B3F5CA607003F57D4958C">
		<name>Tainan</name>
		<styleUrl>#icon-1499-097138-nodesc</styleUrl>
		<Point>
			<coordinates>120.226876,22.9999,0</coordinates>
		</Point>
	</Placemark>
	<Placemark id="B41175F88263F57D4958C">
		<name>Hualien</name>
		<styleUrl>#icon-1499-097138-nodesc</styleUrl>
		<Point>
			<coordinates>121.601571,23.987159,0</coordinates>
		</Point>
	</Placemark>
	<Placemark id="B5D2BD866453F57D4958C">
		<name>Taipei</name>
		<styleUrl>#icon-1499-097138-nodesc</styleUrl>
		<Point>
			<coordinates>121.565427,25.032964,0</coordinates>
		</Point>
	</Placemark>
	<Placemark id="B639A5896873F57D4958C">
		<name>Mandalay</name>
		<styleUrl>#icon-1499-097138-nodesc</styleUrl>
		<Point>
			<coordinates>96.08910299999999,21.958828,0</coordinates>
		</Point>
	</Placemark>
	<Placemark id="B78BEFD570F3F57D4958C">
		<name>Pagan</name>
		<styleUrl>#icon-1499-097138-nodesc</styleUrl>
		<Point>
			<coordinates>94.858546,21.171727,0</coordinates>
		</Point>
	</Placemark>
	<Placemark id="B847ADCFD153F57D4958C">
		<name>Kalaw</name>
		<styleUrl>#icon-1499-097138-nodesc</styleUrl>
		<Point>
			<coordinates>96.562325,20.617611,0</coordinates>
		</Point>
	</Placemark>
	<Placemark id="B9C5A2BE33C3F57D4958C">
		<name>Nyaungshwe</name>
		<styleUrl>#icon-1499-097138-nodesc</styleUrl>
		<Point>
			<coordinates>96.934332,20.659418,0</coordinates>
		</Point>
	</Placemark>
	<Placemark id="BAA7A0E8D2B3F57D4958C">
		<name>Yangon</name>
		<styleUrl>#icon-1499-097138-nodesc</styleUrl>
		<Point>
			<coordinates>96.195132,16.866069,0</coordinates>
		</Point>
	</Placemark>
	<Placemark id="BB58379BA8E3F57D4958C">
		<name>Kota Kinabalu</name>
		<styleUrl>#icon-1499-097138-nodesc</styleUrl>
		<Point>
			<coordinates>116.073457,5.980408,0</coordinates>
		</Point>
	</Placemark>
	<Placemark id="BC745BB3FF23F57D4958C">
		<name>Bandar Seri Begawan</name>
		<styleUrl>#icon-1499-097138-nodesc</styleUrl>
		<Point>
			<coordinates>114.939821,4.903052,0</coordinates>
		</Point>
	</Placemark>
	<Placemark id="BD6E51B487A3F57D4958C">
		<name>Miri</name>
		<styleUrl>#icon-1499-097138-nodesc</styleUrl>
		<Point>
			<coordinates>113.991383,4.399493,0</coordinates>
		</Point>
	</Placemark>
	<Placemark id="BE6A5D82E0B3F57D4958C">
		<name>Niah National Park</name>
		<styleUrl>#icon-1499-097138-nodesc</styleUrl>
		<Point>
			<coordinates>113.786884,3.798135,0</coordinates>
		</Point>
	</Placemark>
	<Placemark id="BFAE20BB9F13F57D4958C">
		<name>Kuching</name>
		<styleUrl>#icon-1499-097138-nodesc</styleUrl>
		<Point>
			<coordinates>110.378544,1.607681,0</coordinates>
		</Point>
	</Placemark>
	<Placemark id="C0B38C806463F57D4958C">
		<name>Whangarei</name>
		<styleUrl>#icon-1499-097138-nodesc</styleUrl>
		<Point>
			<coordinates>174.315152,-35.710607,0</coordinates>
		</Point>
	</Placemark>
	<Placemark id="C10825BAF703F57D4958C">
		<name>Auckland</name>
		<styleUrl>#icon-1499-097138-nodesc</styleUrl>
		<Point>
			<coordinates>174.763332,-36.84846,0</coordinates>
		</Point>
	</Placemark>
	<Placemark id="C21DB4B1C5E3F57D4958C">
		<name>Pukenui</name>
		<styleUrl>#icon-1499-097138-nodesc</styleUrl>
		<Point>
			<coordinates>173.115602,-34.817149,0</coordinates>
		</Point>
	</Placemark>
	<Placemark id="C3E6607B4FC3F57D4958C">
		<name>Cape Reinga</name>
		<styleUrl>#icon-1499-097138-nodesc</styleUrl>
		<Point>
			<coordinates>172.677593,-34.426797,0</coordinates>
		</Point>
	</Placemark>
	<Placemark id="C46D19F90093F57D4958C">
		<name>Kerikeri</name>
		<styleUrl>#icon-1499-097138-nodesc</styleUrl>
		<Point>
			<coordinates>173.947792,-35.22861,0</coordinates>
		</Point>
	</Placemark>
	<Placemark id="C5BF335AC203F57D4958C">
		<name>Waiheke island</name>
		<styleUrl>#icon-1499-097138-nodesc</styleUrl>
		<Point>
			<coordinates>175.02288,-36.786681,0</coordinates>
		</Point>
	</Placemark>
	<Placemark id="C654034299A3F57D4958C">
		<name>Whitianga</name>
		<styleUrl>#icon-1499-097138-nodesc</styleUrl>
		<Point>
			<coordinates>175.70044,-36.821829,0</coordinates>
		</Point>
	</Placemark>
	<Placemark id="C79ECCD516A3F57D4958C">
		<name>Tauranga</name>
		<styleUrl>#icon-1499-097138-nodesc</styleUrl>
		<Point>
			<coordinates>176.16513,-37.687798,0</coordinates>
		</Point>
	</Placemark>
	<Placemark id="C8CCA0FEB433F57D4958C">
		<name>Rotorua</name>
		<styleUrl>#icon-1499-097138-nodesc</styleUrl>
		<Point>
			<coordinates>176.249746,-38.136848,0</coordinates>
		</Point>
	</Placemark>
	<Placemark id="C9B7BCECB293F57D4958C">
		<name>Taupo</name>
		<styleUrl>#icon-1499-097138-nodesc</styleUrl>
		<Point>
			<coordinates>176.07021,-38.685692,0</coordinates>
		</Point>
	</Placemark>
	<Placemark id="CACC08B708E3F57D4958C">
		<name>Napier</name>
		<styleUrl>#icon-1499-097138-nodesc</styleUrl>
		<Point>
			<coordinates>176.912018,-39.492844,0</coordinates>
		</Point>
	</Placemark>
	<Placemark id="CB8BDC6641E3F57D4958C">
		<name>Turangi</name>
		<styleUrl>#icon-1499-097138-nodesc</styleUrl>
		<Point>
			<coordinates>175.808748,-38.989871,0</coordinates>
		</Point>
	</Placemark>
	<Placemark id="CC78CBC5AB53F57D4958C">
		<name>New Plymouth</name>
		<styleUrl>#icon-1499-097138-nodesc</styleUrl>
		<Point>
			<coordinates>174.075228,-39.055625,0</coordinates>
		</Point>
	</Placemark>
	<Placemark id="CD4021DA0AF3F57D4958C">
		<name>Wellington</name>
		<styleUrl>#icon-1499-097138-nodesc</styleUrl>
		<Point>
			<coordinates>174.776236,-41.28646,0</coordinates>
		</Point>
	</Placemark>
	<Placemark id="CED03480FAB3F57D4958C">
		<name>Xi&apos;an</name>
		<styleUrl>#icon-1499-097138-nodesc</styleUrl>
		<Point>
			<coordinates>108.967209,34.259774,0</coordinates>
		</Point>
	</Placemark>
	<Placemark id="CF213E2BA6D3F57D4958C">
		<name>Pingyao</name>
		<styleUrl>#icon-1499-097138-nodesc</styleUrl>
		<Point>
			<coordinates>112.176273,37.189559,0</coordinates>
		</Point>
	</Placemark>
	<Placemark id="D0974DA64BA3F57D4958C">
		<name>Chongqing</name>
		<styleUrl>#icon-1499-097138-nodesc</styleUrl>
		<Point>
			<coordinates>106.551556,29.56300999999999,0</coordinates>
		</Point>
	</Placemark>
	<Placemark id="D1D0DED078D3F57D4958C">
		<name>Chengdu</name>
		<styleUrl>#icon-1499-097138-nodesc</styleUrl>
		<Point>
			<coordinates>104.066801,30.572816,0</coordinates>
		</Point>
	</Placemark>
	<Placemark id="D26ABF603F03F57D4958C">
		<name>Dali</name>
		<styleUrl>#icon-1499-097138-nodesc</styleUrl>
		<Point>
			<coordinates>100.267638,25.606486,0</coordinates>
		</Point>
	</Placemark>
	<Placemark id="D30838357A83F57D4958C">
		<name>Kunming</name>
		<styleUrl>#icon-1499-097138-nodesc</styleUrl>
		<Point>
			<coordinates>102.832892,24.880095,0</coordinates>
		</Point>
	</Placemark>
	<Placemark id="D48BFBEB1923F57D4958C">
		<name>Shenzhen</name>
		<styleUrl>#icon-1499-097138-nodesc</styleUrl>
		<Point>
			<coordinates>114.057865,22.54309599999999,0</coordinates>
		</Point>
	</Placemark>
	<Placemark id="D5D96C88B1A3F57D4958C">
		<name>Guangzhou</name>
		<styleUrl>#icon-1499-097138-nodesc</styleUrl>
		<Point>
			<coordinates>113.264385,23.12911,0</coordinates>
		</Point>
	</Placemark>
	<Placemark id="D6F38B2D1D53F57D4958C">
		<name>Xiamen</name>
		<styleUrl>#icon-1499-097138-nodesc</styleUrl>
		<Point>
			<coordinates>118.089425,24.479834,0</coordinates>
		</Point>
	</Placemark>
	<Placemark id="D783C30C3B13F57D4958C">
		<name>Shanghai</name>
		<styleUrl>#icon-1499-097138-nodesc</styleUrl>
		<Point>
			<coordinates>121.473701,31.230416,0</coordinates>
		</Point>
	</Placemark>
	<Placemark id="D8A99D276293F57D4958C">
		<name>Beijing</name>
		<styleUrl>#icon-1499-097138-nodesc</styleUrl>
		<Point>
			<coordinates>116.407395,39.904211,0</coordinates>
		</Point>
	</Placemark>
	<Placemark id="D9FADAD8E8A3F57D4958C">
		<name>Gwangju</name>
		<styleUrl>#icon-1499-097138-nodesc</styleUrl>
		<Point>
			<coordinates>126.866811,35.123749,0</coordinates>
		</Point>
	</Placemark>
	<Placemark id="DA6BEF8C74C3F57D4958C">
		<name>Gwangyang</name>
		<styleUrl>#icon-1499-097138-nodesc</styleUrl>
		<Point>
			<coordinates>127.716154,34.965237,0</coordinates>
		</Point>
	</Placemark>
	<Placemark id="DB634EAD17B3F57D4958C">
		<name>Geoje</name>
		<styleUrl>#icon-1499-097138-nodesc</styleUrl>
		<Point>
			<coordinates>128.727399,34.868034,0</coordinates>
		</Point>
	</Placemark>
	<Placemark id="DC8EBEE92D43F57D4958C">
		<name>Daejeon</name>
		<styleUrl>#icon-1499-097138-nodesc</styleUrl>
		<Point>
			<coordinates>127.384548,36.350412,0</coordinates>
		</Point>
	</Placemark>
	<Placemark id="DD35E7DFD3A3F57D4958C">
		<name>Osaka</name>
		<styleUrl>#icon-1499-097138-nodesc</styleUrl>
		<Point>
			<coordinates>135.519661,34.686297,0</coordinates>
		</Point>
	</Placemark>
	<Placemark id="DEBB3E1EAE73F57D4958C">
		<name>Nagoya</name>
		<styleUrl>#icon-1499-097138-nodesc</styleUrl>
		<Point>
			<coordinates>136.906398,35.181446,0</coordinates>
		</Point>
	</Placemark>
	<Placemark id="DFE5092ED643F57D4958C">
		<name>Kyoto</name>
		<styleUrl>#icon-1499-097138-nodesc</styleUrl>
		<Point>
			<coordinates>135.768029,35.011636,0</coordinates>
		</Point>
	</Placemark>
	<Placemark id="E0E39C480C13F57D4958C">
		<name>Matsumoto</name>
		<styleUrl>#icon-1499-097138-nodesc</styleUrl>
		<Point>
			<coordinates>137.972034,36.238038,0</coordinates>
		</Point>
	</Placemark>
	<Placemark id="E1DD30C33033F57D4958C">
		<name>Fuji</name>
		<styleUrl>#icon-1499-097138-nodesc</styleUrl>
		<Point>
			<coordinates>138.768843,35.498234,0</coordinates>
		</Point>
	</Placemark>
	<Placemark id="E27D75D21F13F57D4958C">
		<name>Vientiane</name>
		<styleUrl>#icon-1499-097138-nodesc</styleUrl>
		<Point>
			<coordinates>102.633104,17.975706,0</coordinates>
		</Point>
	</Placemark>
	<Placemark id="E37270568EB3F57D4958C">
		<name>Luang Prabang</name>
		<styleUrl>#icon-1499-097138-nodesc</styleUrl>
		<Point>
			<coordinates>102.131105,19.884986,0</coordinates>
		</Point>
	</Placemark>
	<Placemark id="E420FCF98283F57D4958C">
		<name>Vang Vieng</name>
		<styleUrl>#icon-1499-097138-nodesc</styleUrl>
		<Point>
			<coordinates>102.446016,18.918453,0</coordinates>
		</Point>
	</Placemark>
	<Placemark id="E5F4CBF49A33F57D4958C">
		<name>Kathmandu</name>
		<styleUrl>#icon-1499-097138-nodesc</styleUrl>
		<Point>
			<coordinates>85.314127,27.715815,0</coordinates>
		</Point>
	</Placemark>
	<Placemark id="E6C1E9777C53F57D4958C">
		<name>Pokhara</name>
		<styleUrl>#icon-1499-097138-nodesc</styleUrl>
		<Point>
			<coordinates>83.957363,28.217345,0</coordinates>
		</Point>
	</Placemark>
	<Placemark id="E79107E32913F57D4958C">
		<name>Ulleri</name>
		<styleUrl>#icon-1499-097138-nodesc</styleUrl>
		<Point>
			<coordinates>83.734375,28.358507,0</coordinates>
		</Point>
	</Placemark>
	<Placemark id="E88077B2EF93F57D4958C">
		<name>Ghode Pani</name>
		<styleUrl>#icon-1499-097138-nodesc</styleUrl>
		<Point>
			<coordinates>83.700113,28.402262,0</coordinates>
		</Point>
	</Placemark>
	<Placemark id="E944C36BD873F57D4958C">
		<name>Landruk</name>
		<styleUrl>#icon-1499-097138-nodesc</styleUrl>
		<Point>
			<coordinates>83.82547599999999,28.371354,0</coordinates>
		</Point>
	</Placemark>
	<Placemark id="EAFA92B69BC3F57D4958C">
		<name>Annapurna Base Camp</name>
		<styleUrl>#icon-1499-097138-nodesc</styleUrl>
		<Point>
			<coordinates>83.878069,28.530414,0</coordinates>
		</Point>
	</Placemark>
	<Placemark id="EBF5B02013C3F57D4958C">
		<name>Machhapuchhre Base Camp</name>
		<styleUrl>#icon-1499-097138-nodesc</styleUrl>
		<Point>
			<coordinates>83.907668,28.526604,0</coordinates>
		</Point>
	</Placemark>
	<Placemark id="ECDB03BCE933F57D4958C">
		<name>Sinuwa</name>
		<styleUrl>#icon-1499-097138-nodesc</styleUrl>
		<Point>
			<coordinates>83.832718,28.43013,0</coordinates>
		</Point>
	</Placemark>
	<Placemark id="ED2848E30D53F57D4958C">
		<name>Chomrong</name>
		<styleUrl>#icon-1499-097138-nodesc</styleUrl>
		<Point>
			<coordinates>83.81813200000001,28.419288,0</coordinates>
		</Point>
	</Placemark>
	<Placemark id="EED09F494B33F57D4958C">
		<name>Bamboo</name>
		<styleUrl>#icon-1499-097138-nodesc</styleUrl>
		<Point>
			<coordinates>83.845589,28.442334,0</coordinates>
		</Point>
	</Placemark>
	<Placemark id="EF8C101A4973F57D4958C">
		<name>Australian Camp</name>
		<styleUrl>#icon-1499-097138-nodesc</styleUrl>
		<Point>
			<coordinates>83.828591,28.304607,0</coordinates>
		</Point>
	</Placemark>
	<Placemark id="F06048BF6E03F57D4958C">
		<name>Christchurch</name>
		<styleUrl>#icon-1499-097138-nodesc</styleUrl>
		<Point>
			<coordinates>172.636225,-43.532054,0</coordinates>
		</Point>
	</Placemark>
	<Placemark id="F1E9A2A36303F57D4958C">
		<name>Alexandra</name>
		<styleUrl>#icon-1499-097138-nodesc</styleUrl>
		<Point>
			<coordinates>169.317944,-45.252861,0</coordinates>
		</Point>
	</Placemark>
	<Placemark id="F210315D3E73F57D4958C">
		<name>Te Anau</name>
		<styleUrl>#icon-1499-097138-nodesc</styleUrl>
		<Point>
			<coordinates>167.718053,-45.41445199999999,0</coordinates>
		</Point>
	</Placemark>
	<Placemark id="F3F068CF7303F57D4958C">
		<name>Queenstown</name>
		<styleUrl>#icon-1499-097138-nodesc</styleUrl>
		<Point>
			<coordinates>168.662644,-45.03116199999999,0</coordinates>
		</Point>
	</Placemark>
	<Placemark id="F4597FCEC0D3F57D4958C">
		<name>Tekapo</name>
		<styleUrl>#icon-1499-097138-nodesc</styleUrl>
		<Point>
			<coordinates>170.495509,-44.008673,0</coordinates>
		</Point>
	</Placemark>
	<Placemark id="F5A03ABAB463F57D4958C">
		<name>Wanaka</name>
		<styleUrl>#icon-1499-097138-nodesc</styleUrl>
		<Point>
			<coordinates>169.13505,-44.698541,0</coordinates>
		</Point>
	</Placemark>
	<Placemark id="F6FA590CD043F57D4958C">
		<name>Franz Josef</name>
		<styleUrl>#icon-1499-097138-nodesc</styleUrl>
		<Point>
			<coordinates>170.183669,-43.389471,0</coordinates>
		</Point>
	</Placemark>
	<Placemark id="F7BF6D6AA623F57D4958C">
		<name>Milford Sound</name>
		<styleUrl>#icon-1499-097138-nodesc</styleUrl>
		<Point>
			<coordinates>167.89738,-44.641402,0</coordinates>
		</Point>
	</Placemark>
	<Placemark id="F8AD60DE8553F57D4958C">
		<name>Punakaiki</name>
		<styleUrl>#icon-1499-097138-nodesc</styleUrl>
		<Point>
			<coordinates>171.336313,-42.108415,0</coordinates>
		</Point>
	</Placemark>
	<Placemark id="F9CA2692DAD3F57D4958C">
		<name>Nelson</name>
		<styleUrl>#icon-1499-097138-nodesc</styleUrl>
		<Point>
			<coordinates>173.282414,-41.272369,0</coordinates>
		</Point>
	</Placemark>
	<Placemark id="FABED3100B83F57D4958C">
		<name>Motueka</name>
		<styleUrl>#icon-1499-097138-nodesc</styleUrl>
		<Point>
			<coordinates>173.010233,-41.124043,0</coordinates>
		</Point>
	</Placemark>
	<Placemark id="FBCCD134D593F57D4958C">
		<name>Havelock</name>
		<styleUrl>#icon-1499-097138-nodesc</styleUrl>
		<Point>
			<coordinates>173.767211,-41.28465,0</coordinates>
		</Point>
	</Placemark>
	<Placemark id="FC5C23CC6993F57D4958C">
		<name>Picton</name>
		<styleUrl>#icon-1499-097138-nodesc</styleUrl>
		<Point>
			<coordinates>174.001004,-41.290593,0</coordinates>
		</Point>
	</Placemark>
	<Placemark id="FDC39080AF63F57D4958C">
		<name>Melbourne</name>
		<styleUrl>#icon-1499-097138-nodesc</styleUrl>
		<Point>
			<coordinates>144.963722,-37.815827,0</coordinates>
		</Point>
	</Placemark>
	<Placemark id="FECB142891E3F57D4958C">
		<name>Hobart</name>
		<styleUrl>#icon-1499-097138-nodesc</styleUrl>
		<Point>
			<coordinates>147.327195,-42.882138,0</coordinates>
		</Point>
	</Placemark>
	<Placemark id="FF7510DC7793F57D4958C">
		<name>Launceston</name>
		<styleUrl>#icon-1499-097138-nodesc</styleUrl>
		<Point>
			<coordinates>147.144088,-41.433222,0</coordinates>
		</Point>
	</Placemark>
	<Placemark id="1005B1C1CF063F57D4958C">
		<name>Sydney</name>
		<styleUrl>#icon-1499-097138-nodesc</styleUrl>
		<Point>
			<coordinates>151.209296,-33.86882,0</coordinates>
		</Point>
	</Placemark>
	<Placemark id="101E97C117003F57D4958C">
		<name>Katoomba</name>
		<styleUrl>#icon-1499-097138-nodesc</styleUrl>
		<Point>
			<coordinates>150.310529,-33.718105,0</coordinates>
		</Point>
	</Placemark>
	<Placemark id="1020312B3C253F57D4958C">
		<name>Coolangatta</name>
		<styleUrl>#icon-1499-097138-nodesc</styleUrl>
		<Point>
			<coordinates>153.533333,-28.166667,0</coordinates>
		</Point>
	</Placemark>
	<Placemark id="10363B61230C3F57D4958C">
		<name>Byron Bay</name>
		<styleUrl>#icon-1499-097138-nodesc</styleUrl>
		<Point>
			<coordinates>153.637716,-28.636302,0</coordinates>
		</Point>
	</Placemark>
	<Placemark id="1048A4F2C56E3F57D4958C">
		<name>Brisbane</name>
		<styleUrl>#icon-1499-097138-nodesc</styleUrl>
		<Point>
			<coordinates>153.025124,-27.469771,0</coordinates>
		</Point>
	</Placemark>
	<Placemark id="10586439001D3F57D4958C">
		<name>Flynn Reef</name>
		<styleUrl>#icon-1499-097138-nodesc</styleUrl>
		<Point>
			<coordinates>146.275218,-16.736342,0</coordinates>
		</Point>
	</Placemark>
	<Placemark id="106A45C504533F57D4958C">
		<name>Cairns</name>
		<styleUrl>#icon-1499-097138-nodesc</styleUrl>
		<Point>
			<coordinates>145.773523,-16.92482,0</coordinates>
		</Point>
	</Placemark>
	<Placemark id="107A8D1C514B3F57D4958C">
		<name>Darwin</name>
		<styleUrl>#icon-1499-097138-nodesc</styleUrl>
		<Point>
			<coordinates>130.837776,-12.425766,0</coordinates>
		</Point>
	</Placemark>
	<Placemark id="1087CC0FBBBB3F57D4958C">
		<name>Negombo</name>
		<styleUrl>#icon-1499-097138-nodesc</styleUrl>
		<Point>
			<coordinates>79.87367500000001,7.200797,0</coordinates>
		</Point>
	</Placemark>
	<Placemark id="1093AAF853633F57D4958C">
		<name>Hikkaduwa</name>
		<styleUrl>#icon-1499-097138-nodesc</styleUrl>
		<Point>
			<coordinates>80.106286,6.139468,0</coordinates>
		</Point>
	</Placemark>
	<Placemark id="10A209825D7F3F57D4958C">
		<name>Unawatuna</name>
		<styleUrl>#icon-1499-097138-nodesc</styleUrl>
		<Point>
			<coordinates>80.247924,6.012519,0</coordinates>
		</Point>
	</Placemark>
	<Placemark id="10B18E28C1653F57D4958C">
		<name>Tangalle</name>
		<styleUrl>#icon-1499-097138-nodesc</styleUrl>
		<Point>
			<coordinates>80.827392,6.045081,0</coordinates>
		</Point>
	</Placemark>
	<Placemark id="10C6D93937523F57D4958C">
		<name>Udawalawa Junction</name>
		<styleUrl>#icon-1499-097138-nodesc</styleUrl>
		<Point>
			<coordinates>80.79633699999999,6.410704,0</coordinates>
		</Point>
	</Placemark>
	<Placemark id="10D2E78337433F57D4958C">
		<name>Ella</name>
		<styleUrl>#icon-1499-097138-nodesc</styleUrl>
		<Point>
			<coordinates>81.04825,6.875584,0</coordinates>
		</Point>
	</Placemark>
	<Placemark id="10EDAD509E913F57D4958C">
		<name>Nuwara Eliya</name>
		<styleUrl>#icon-1499-097138-nodesc</styleUrl>
		<Point>
			<coordinates>80.76563299999999,6.962751,0</coordinates>
		</Point>
	</Placemark>
	<Placemark id="10F7A4BDC1453F57D4958C">
		<name>Kandy</name>
		<styleUrl>#icon-1499-097138-nodesc</styleUrl>
		<Point>
			<coordinates>80.636261,7.296784,0</coordinates>
		</Point>
	</Placemark>
	<Placemark id="11074B25D9DD3F57D4958C">
		<name>Ipoh</name>
		<styleUrl>#icon-1499-097138-nodesc</styleUrl>
		<Point>
			<coordinates>101.077602,4.596341,0</coordinates>
		</Point>
	</Placemark>
	<Placemark id="111EA0D3F1073F57D4958C">
		<name>Samut Prakan</name>
		<styleUrl>#icon-1499-097138-nodesc</styleUrl>
		<Point>
			<coordinates>100.631553,13.626618,0</coordinates>
		</Point>
	</Placemark>
	<Placemark id="1124E3A2EFD73F57D4958C">
		<name>Toronto</name>
		<styleUrl>#icon-1499-097138-nodesc</styleUrl>
		<Point>
			<coordinates>-79.383184,43.653226,0</coordinates>
		</Point>
	</Placemark>
	<Placemark id="11300255638F3F57D4958C">
		<name>Niagara Falls</name>
		<styleUrl>#icon-1499-097138-nodesc</styleUrl>
		<Point>
			<coordinates>-79.08152,43.095544,0</coordinates>
		</Point>
	</Placemark>
	<Placemark id="1140B1207AD43F57D4958C">
		<name>Brooklyn</name>
		<styleUrl>#icon-1499-097138-nodesc</styleUrl>
		<Point>
			<coordinates>-73.93217,40.668586,0</coordinates>
		</Point>
	</Placemark>
	<Placemark id="115A4F9EBEFF3F57D4958C">
		<name>Washington D.C.</name>
		<styleUrl>#icon-1499-097138-nodesc</styleUrl>
		<Point>
			<coordinates>-77.049887,38.889055,0</coordinates>
		</Point>
	</Placemark>
	<Placemark id="116820D58B883F57D4958C">
		<name>Quebec City</name>
		<styleUrl>#icon-1499-097138-nodesc</styleUrl>
		<Point>
			<coordinates>-71.22287300000001,46.81681300000001,0</coordinates>
		</Point>
	</Placemark>
	<Placemark id="11790AE0D01C3F57D4958C">
		<name>Montreal</name>
		<styleUrl>#icon-1499-097138-nodesc</styleUrl>
		<Point>
			<coordinates>-73.545024,45.559696,0</coordinates>
		</Point>
	</Placemark>
	<Placemark id="1189B0B5D29F3F57D4958C">
		<name>Ottawa</name>
		<styleUrl>#icon-1499-097138-nodesc</styleUrl>
		<Point>
			<coordinates>-75.702765,45.412905,0</coordinates>
		</Point>
	</Placemark>
	<Placemark id="11914D0A92DF3F57D4958C">
		<name>Johannesburg</name>
		<styleUrl>#icon-1499-097138-nodesc</styleUrl>
		<Point>
			<coordinates>28.041251,-26.145615,0</coordinates>
		</Point>
	</Placemark>
	<Placemark id="11A7F7A9B2163F57D4958C">
		<name>Kruger National Park</name>
		<styleUrl>#icon-1499-097138-nodesc</styleUrl>
		<Point>
			<coordinates>31.777939,-24.40338,0</coordinates>
		</Point>
	</Placemark>
	<Placemark id="11B447D237C03F57D4958C">
		<name>Cape Town</name>
		<styleUrl>#icon-1499-097138-nodesc</styleUrl>
		<Point>
			<coordinates>18.416293,-33.915851,0</coordinates>
		</Point>
	</Placemark>
	<Placemark id="11CECF7DD7273F57D4958C">
		<name>Oudtshoorn</name>
		<styleUrl>#icon-1499-097138-nodesc</styleUrl>
		<Point>
			<coordinates>22.205702,-33.579741,0</coordinates>
		</Point>
	</Placemark>
	<Placemark id="11DB51FCD81F3F57D4958C">
		<name>Bloukrans bridge</name>
		<styleUrl>#icon-1499-097138-nodesc</styleUrl>
		<Point>
			<coordinates>23.646402,-33.966896,0</coordinates>
		</Point>
	</Placemark>
	<Placemark id="11EE257627153F57D4958C">
		<name>Sedgefield</name>
		<styleUrl>#icon-1499-097138-nodesc</styleUrl>
		<Point>
			<coordinates>22.802108,-34.033217,0</coordinates>
		</Point>
	</Placemark>
	<Placemark id="11F63902272D3F57D4958C">
		<name>Kinsale</name>
		<styleUrl>#icon-1499-097138-nodesc</styleUrl>
		<Point>
			<coordinates>-8.521347,51.704576,0</coordinates>
		</Point>
	</Placemark>
	<Placemark id="120E5B97F7AA3F57D4958C">
		<name>Trogir</name>
		<styleUrl>#icon-1499-097138-nodesc</styleUrl>
		<Point>
			<coordinates>16.247925,43.520025,0</coordinates>
		</Point>
	</Placemark>
	<Placemark id="12134A17B7123F57D4958C">
		<name>Mostar</name>
		<styleUrl>#icon-1499-097138-nodesc</styleUrl>
		<Point>
			<coordinates>17.794928,43.348135,0</coordinates>
		</Point>
	</Placemark>
	<Placemark id="122B76BC5AC43F57D4958C">
		<name>Sarajevo</name>
		<styleUrl>#icon-1499-097138-nodesc</styleUrl>
		<Point>
			<coordinates>18.434273,43.856397,0</coordinates>
		</Point>
	</Placemark>
	<Placemark id="1231BBD9D6CE3F57D4958C">
		<name>Belgrade</name>
		<styleUrl>#icon-1499-097138-nodesc</styleUrl>
		<Point>
			<coordinates>20.457685,44.814966,0</coordinates>
		</Point>
	</Placemark>
	<Placemark id="124D483A48353F57D4958C">
		<name>Istanbul</name>
		<styleUrl>#icon-1499-097138-nodesc</styleUrl>
		<Point>
			<coordinates>28.980434,41.004021,0</coordinates>
		</Point>
	</Placemark>
	<Placemark id="125E22742CB73F57D4958C">
		<name>Göreme</name>
		<styleUrl>#icon-1499-097138-nodesc</styleUrl>
		<Point>
			<coordinates>34.830089,38.642279,0</coordinates>
		</Point>
	</Placemark>
	<Placemark id="126FFE6165133F57D4958C">
		<name>Antalya</name>
		<styleUrl>#icon-1499-097138-nodesc</styleUrl>
		<Point>
			<coordinates>30.708825,36.88204,0</coordinates>
		</Point>
	</Placemark>
	<Placemark id="1273DF47410C3F57D4958C">
		<name>Bucharest</name>
		<styleUrl>#icon-1499-097138-nodesc</styleUrl>
		<Point>
			<coordinates>26.105988,44.427441,0</coordinates>
		</Point>
	</Placemark>
	<Placemark id="12837EAB41913F57D4958C">
		<name>Brașov</name>
		<styleUrl>#icon-1499-097138-nodesc</styleUrl>
		<Point>
			<coordinates>25.625607,45.654048,0</coordinates>
		</Point>
	</Placemark>
	<Placemark id="1295C1C6CFF73F57D4958C">
		<name>Lisbon</name>
		<styleUrl>#icon-1499-097138-nodesc</styleUrl>
		<Point>
			<coordinates>-9.141135,38.727837,0</coordinates>
		</Point>
	</Placemark>
	<Placemark id="12A3F3001D3D3F57D4958C">
		<name>Porto</name>
		<styleUrl>#icon-1499-097138-nodesc</styleUrl>
		<Point>
			<coordinates>-8.586513999999999,41.181204,0</coordinates>
		</Point>
	</Placemark>
	<Placemark id="12B6192A57413F57D4958C">
		<name>Vila do Conde</name>
		<styleUrl>#icon-1499-097138-nodesc</styleUrl>
		<Point>
			<coordinates>-8.741031,41.374416,0</coordinates>
		</Point>
	</Placemark>
	<Placemark id="12C794C516933F57D4958C">
		<name>Queens</name>
		<styleUrl>#icon-1499-097138-nodesc</styleUrl>
		<Point>
			<coordinates>-73.89192,40.733518,0</coordinates>
		</Point>
	</Placemark>
	<Placemark id="12D7B2D82FE23F57D4958C">
		<name>Philadelphia</name>
		<styleUrl>#icon-1499-097138-nodesc</styleUrl>
		<Point>
			<coordinates>-75.171621,39.940061,0</coordinates>
		</Point>
	</Placemark>
	<Placemark id="12ECCAFE5BE43F57D4958C">
		<name>Nonthaburi</name>
		<styleUrl>#icon-1499-097138-nodesc</styleUrl>
		<Point>
			<coordinates>100.406331,13.8895,0</coordinates>
		</Point>
	</Placemark>
	<Placemark id="12FBB39CD3193F57D4958C">
		<name>Phuket</name>
		<styleUrl>#icon-1499-097138-nodesc</styleUrl>
		<Point>
			<coordinates>98.30971800000002,8.108637,0</coordinates>
		</Point>
	</Placemark>
	<Placemark id="130D35293EA93F57D4958C">
		<name>Chepén</name>
		<styleUrl>#icon-1499-097138-nodesc</styleUrl>
		<Point>
			<coordinates>-79.428805,-7.227126999999999,0</coordinates>
		</Point>
	</Placemark>
	<Placemark id="13184EB621DB3F57D4958C">
		<name>Dijon</name>
		<styleUrl>#icon-1499-097138-nodesc</styleUrl>
		<Point>
			<coordinates>5.03193310000006,47.3277426,0</coordinates>
		</Point>
	</Placemark>
	<Placemark id="132E8954B2433F57D4958C">
		<name>Col de la Faucille</name>
		<styleUrl>#icon-1499-097138-nodesc</styleUrl>
		<Point>
			<coordinates>6.018914,46.370019,0</coordinates>
		</Point>
	</Placemark>
	<Placemark id="1337FCED24773F57D4958C">
		<name>Quai de Versoix</name>
		<styleUrl>#icon-1499-097138-nodesc</styleUrl>
		<Point>
			<coordinates>6.1699744,46.2767017,0</coordinates>
		</Point>
	</Placemark>
	<Placemark id="134901FA7C1C3F57D4958C">
		<name>Magdeburg</name>
		<styleUrl>#icon-1499-097138-nodesc</styleUrl>
		<Point>
			<coordinates>11.62762316105595,52.12059676358292,0</coordinates>
		</Point>
	</Placemark>
	<Placemark id="135BBA0F2AED3F57D4958C">
		<name>Kraków</name>
		<styleUrl>#icon-1499-097138-nodesc</styleUrl>
		<Point>
			<coordinates>19.94460530896259,50.06536215655279,0</coordinates>
		</Point>
	</Placemark>
	<Placemark id="13631EFA971B3F57D4958C">
		<name>Bintan</name>
		<styleUrl>#icon-1499-097138-nodesc</styleUrl>
		<Point>
			<coordinates>104.6482733935751,1.005035120813102,0</coordinates>
		</Point>
	</Placemark>
	<Placemark id="137716B326E93F57D4958C">
		<name>Schiermonnikoog</name>
		<styleUrl>#icon-1499-097138-nodesc</styleUrl>
		<Point>
			<coordinates>6.16023732608803,53.48670134367981,0</coordinates>
		</Point>
	</Placemark>
	<Placemark id="0F8445F8DA3F57D4958E">
		<name>Granada</name>
		<styleUrl>#icon-1499-097138-nodesc</styleUrl>
		<Point>
			<coordinates>-3.597426141033294,37.17569970974242,0</coordinates>
		</Point>
	</Placemark>
	<Placemark id="14627195F13F57D4958E">
		<name>Sevilla</name>
		<styleUrl>#icon-1499-097138-nodesc</styleUrl>
		<Point>
			<coordinates>-5.984704958725798,37.38954208472595,0</coordinates>
		</Point>
	</Placemark>
	<Placemark id="22B28691133F57D4958E">
		<name>Córdoba</name>
		<styleUrl>#icon-1499-097138-nodesc</styleUrl>
		<Point>
			<coordinates>-4.779382726648345,37.88817270079944,0</coordinates>
		</Point>
	</Placemark>
	<Placemark id="38027ABC453F57D4958E">
		<name>Torremolinos</name>
		<styleUrl>#icon-1499-097138-nodesc</styleUrl>
		<Point>
			<coordinates>-4.499927562671703,36.62198115058964,0</coordinates>
		</Point>
	</Placemark>
	<Placemark id="4EF080D7333F57D4958E">
		<name>Münster</name>
		<styleUrl>#icon-1499-097138-nodesc</styleUrl>
		<Point>
			<coordinates>7.626125578263108,51.96065407484851,0</coordinates>
		</Point>
	</Placemark>
	<Placemark id="540166B25E3F57D4958E">
		<name>Clonakilty</name>
		<styleUrl>#icon-1499-097138-nodesc</styleUrl>
		<Point>
			<coordinates>-8.902882930166765,51.60667947165197,0</coordinates>
		</Point>
	</Placemark>
	<Placemark id="695CDCFEFA3F57D4958E">
		<name>Three Castle Head</name>
		<styleUrl>#icon-1499-097138-nodesc</styleUrl>
		<Point>
			<coordinates>-9.8366667,51.48277780000001,0</coordinates>
		</Point>
	</Placemark>
	<Placemark id="7D336D92F73F57D4958E">
		<name>Inishmore</name>
		<styleUrl>#icon-1499-097138-nodesc</styleUrl>
		<Point>
			<coordinates>-9.666923667953277,53.11811157193682,0</coordinates>
		</Point>
	</Placemark>
	<Placemark id="833423C6C73F57D4958E">
		<name>Koblenz</name>
		<styleUrl>#icon-1499-097138-nodesc</styleUrl>
		<Point>
			<coordinates>7.591057926693951,50.35450704450338,0</coordinates>
		</Point>
	</Placemark>
	<Placemark id="9A4090C1303F57D4958E">
		<name>Avignon</name>
		<styleUrl>#icon-1499-097138-nodesc</styleUrl>
		<Point>
			<coordinates>4.785728178921753,43.92646657426732,0</coordinates>
		</Point>
	</Placemark>
	<Placemark id="AFE039F9BA3F57D4958E">
		<name>Cannes</name>
		<styleUrl>#icon-1499-097138-nodesc</styleUrl>
		<Point>
			<coordinates>7.011580927896414,43.5561707318522,0</coordinates>
		</Point>
	</Placemark>
	<Placemark id="B4067DCDF83F57D4958E">
		<name>Monaco</name>
		<styleUrl>#icon-1499-097138-nodesc</styleUrl>
		<Point>
			<coordinates>7.427458826442635,43.73276892104607,0</coordinates>
		</Point>
	</Placemark>
	<Placemark id="C392A200E13F57D4958E">
		<name>Ventimiglia</name>
		<styleUrl>#icon-1499-097138-nodesc</styleUrl>
		<Point>
			<coordinates>7.610578604742613,43.78714353178174,0</coordinates>
		</Point>
	</Placemark>
	<Placemark id="D3E0A8E9E13F57D4958E">
		<name>Grasse</name>
		<styleUrl>#icon-1499-097138-nodesc</styleUrl>
		<Point>
			<coordinates>6.925333730632053,43.658041029582,0</coordinates>
		</Point>
	</Placemark>
	<Placemark id="E0D4D90BB63F57D4958E">
		<name>Nice</name>
		<styleUrl>#icon-1499-097138-nodesc</styleUrl>
		<Point>
			<coordinates>7.280515898565678,43.69370574523056,0</coordinates>
		</Point>
	</Placemark>
	<Placemark id="04A04B7C6B3F57EC56FC">
		<name>Oberheimbach</name>
		<LookAt>
			<longitude>7.779266915033758</longitude>
			<latitude>50.021485681629</latitude>
			<altitude>169.6162738328573</altitude>
			<heading>0</heading>
			<tilt>0</tilt>
			<gx:fovy>35</gx:fovy>
			<range>325.9545992458152</range>
			<altitudeMode>absolute</altitudeMode>
		</LookAt>
		<styleUrl>#__managed_style_0DEE5105BC3F57D61339</styleUrl>
		<Point>
			<coordinates>7.779100029600645,50.02091720306543,181.6353260247984</coordinates>
		</Point>
	</Placemark>
	<Placemark id="0B7B9458613F57E2E583">
		<name>Estepona</name>
		<LookAt>
			<longitude>-5.174318684087972</longitude>
			<latitude>36.41687094871141</latitude>
			<altitude>10.15227629600536</altitude>
			<heading>121.9334599198568</heading>
			<tilt>0</tilt>
			<gx:fovy>35</gx:fovy>
			<range>284.3511097038209</range>
			<altitudeMode>absolute</altitudeMode>
		</LookAt>
		<styleUrl>#__managed_style_0DEE5105BC3F57D61339</styleUrl>
		<Point>
			<coordinates>-5.174789548219527,36.4169792789809,15.39110107945733</coordinates>
		</Point>
	</Placemark>
	<Placemark id="057FB5B3773F57E4AA5C">
		<name>Ronda</name>
		<LookAt>
			<longitude>-5.165193764343964</longitude>
			<latitude>36.74073705190888</latitude>
			<altitude>656.6789472697955</altitude>
			<heading>0</heading>
			<tilt>0</tilt>
			<gx:fovy>35</gx:fovy>
			<range>609.343027360228</range>
			<altitudeMode>absolute</altitudeMode>
		</LookAt>
		<styleUrl>#__managed_style_0DEE5105BC3F57D61339</styleUrl>
		<Point>
			<coordinates>-5.166182613432796,36.74117319300792,723.3883237624717</coordinates>
		</Point>
	</Placemark>
	<Placemark id="05B66795CA3F57E3E374">
		<name>Gibraltar</name>
		<LookAt>
			<longitude>-5.345655020161345</longitude>
			<latitude>36.10944940255541</latitude>
			<altitude>27.59789916399382</altitude>
			<heading>0.002554841708837493</heading>
			<tilt>0</tilt>
			<gx:fovy>35</gx:fovy>
			<range>259.7203675745914</range>
			<altitudeMode>absolute</altitudeMode>
		</LookAt>
		<styleUrl>#__managed_style_0DEE5105BC3F57D61339</styleUrl>
		<Point>
			<coordinates>-5.345709566367926,36.10935899837463,29.30458748725028</coordinates>
		</Point>
	</Placemark>
	<Placemark id="013AE657953F57E900C3">
		<name>Gent</name>
		<LookAt>
			<longitude>3.73935667372419</longitude>
			<latitude>51.05910680450402</latitude>
			<altitude>3.9117592535413</altitude>
			<heading>317.8400839645757</heading>
			<tilt>0</tilt>
			<gx:fovy>35</gx:fovy>
			<range>200.5109417829226</range>
			<altitudeMode>absolute</altitudeMode>
		</LookAt>
		<styleUrl>#__managed_style_0DEE5105BC3F57D61339</styleUrl>
		<Point>
			<coordinates>3.739089485226343,51.05903949057094,22.07608390351294</coordinates>
		</Point>
	</Placemark>
	<Placemark id="041DB1BEF33F57D61314">
		<name>Edinburgh</name>
		<LookAt>
			<longitude>-3.169985154985346</longitude>
			<latitude>55.95952921351689</latitude>
			<altitude>27.10964808489065</altitude>
			<heading>0</heading>
			<tilt>0</tilt>
			<gx:fovy>35</gx:fovy>
			<range>260.3183264604741</range>
			<altitudeMode>absolute</altitudeMode>
		</LookAt>
		<styleUrl>#__managed_style_0DEE5105BC3F57D61339</styleUrl>
		<Point>
			<coordinates>-3.169813818714056,55.95956683969438,36.86677783159291</coordinates>
		</Point>
	</Placemark>
</Document>
</kml>
